ONEWEB-0340             
1 49206U 21083W   24220.72241725  .00000086  00000+0  18649-3 0  9999
2 49206  87.9126 110.5209 0002003  78.9869 281.1488 13.18687058141843
ONEWEB-0341             
1 49207U 21083X   24219.74392435  .00000085  00000+0  18367-3 0  9991
2 49207  87.9125 110.7290 0001688 101.3240 258.8082 13.18687080140448
ONEWEB-0342             
1 49208U 21083Y   24220.49426774  .00000036  00000+0  57711-4 0  9993
2 49208  87.9173  49.4801 0001616  86.5114 273.6204 13.20771428147196
ONEWEB-0343             
1 49209U 21083Z   24220.72557596  .00000102  00000+0  22561-3 0  9995
2 49209  87.9119 110.5377 0001405  95.6408 264.4884 13.18685029141912
ONEWEB-0344             
1 49210U 21083AA  24220.73139280  .00000324  00000+0  85240-3 0  9993
2 49210  87.8899  95.2876 0001956  93.8392 266.2961 13.13468482143133
ONEWEB-0345             
1 49211U 21083AB  24220.06324536 -.00000234  00000+0 -67609-3 0  9991
2 49211  87.8894  95.3944 0002024  94.6590 265.4771 13.13467838141752
ONEWEB-0346             
1 49212U 21083AC  24219.74867055  .00000023  00000+0  26652-4 0  9991
2 49212  87.9126 110.7370 0002334  80.0219 280.1177 13.18687115140433
ONEWEB-0348             
1 49213U 21083AD  24220.48479962  .00000102  00000+0  21773-3 0  9997
2 49213  87.9183  49.4589 0002414  98.6112 261.5295 13.20770061147227
